
# Worst residual: 11.08 km
# MJD 60127.000000 (2023 Jul  2  0:00)
1976-023H = NORAD 08753 = S510923 = SOLRAD-11 debris
1 08753U 76023H   23183.49919926  .00000000  00000-0  00000-0 0 18144
2 08753 019.5630 325.0287 0299754 090.0638 232.6766 00.18647619    02

# Worst residual: 14.20 km
# MJD 60128.000000 (2023 Jul  3  0:00)
1976-023H = NORAD 08753 = S510923 = SOLRAD-11 debris
1 08753U 76023H   23184.49919926  .00000000  00000-0  00000-0 0 18145
2 08753 019.5444 325.0442 0312530 095.3612 294.7017 00.18729542    00

# Worst residual: 11.96 km
# MJD 60129.000000 (2023 Jul  4  0:00)
1976-023H = NORAD 08753 = S510923 = SOLRAD-11 debris
1 08753U 76023H   23185.49919926  .00000000  00000-0  00000-0 0 18146
2 08753 019.5361 325.0495 0330898 096.2350 001.3159 00.18695518    06

# Worst residual: 2.88 km
# MJD 60130.000000 (2023 Jul  5  0:00)
1976-023H = NORAD 08753 = S510923 = SOLRAD-11 debris
1 08753U 76023H   23186.49919926  .00000000  00000-0  00000-0 0 18147
2 08753 019.5300 325.0434 0340759 096.9294 067.8172 00.18664823    00

# Worst residual: 7.72 km
# MJD 60131.000000 (2023 Jul  6  0:00)
1976-023H = NORAD 08753 = S510923 = SOLRAD-11 debris
1 08753U 76023H   23187.49919926  .00000000  00000-0  00000-0 0 18148
2 08753 019.5246 325.0469 0340291 094.5480 137.4724 00.18703454    00

# Worst residual: 9.09 km
# MJD 60132.000000 (2023 Jul  7  0:00)
1976-023H = NORAD 08753 = S510923 = SOLRAD-11 debris
1 08753U 76023H   23188.49919926  .00000000  00000-0  00000-0 0 18149
2 08753 019.5155 325.0359 0342682 092.4284 207.0657 00.18715780    06

# Worst residual: 9.03 km
# MJD 60133.000000 (2023 Jul  8  0:00)
1976-023H = NORAD 08753 = S510923 = SOLRAD-11 debris
1 08753U 76023H   23189.49919926  .00000000  00000-0  00000-0 0 18140
2 08753 019.5009 325.0416 0342231 089.4930 277.3530 00.18672803    00

# Worst residual: 8.48 km
# MJD 60134.000000 (2023 Jul  9  0:00)
1976-023H = NORAD 08753 = S510923 = SOLRAD-11 debris
1 08753U 76023H   23190.49919926  .00000000  00000-0  00000-0 0 18142
2 08753 019.4704 325.0016 0336921 089.0498 344.9584 00.18674054    01

# Worst residual: 11.25 km
# MJD 60135.000000 (2023 Jul 10  0:00)
1976-023H = NORAD 08753 = S510923 = SOLRAD-11 debris
1 08753U 76023H   23191.49919926  .00000000  00000-0  00000-0 0 18143
2 08753 019.4615 324.9872 0323532 090.8299 050.5803 00.18703319    04

# Worst residual: 8.17 km
# MJD 60136.000000 (2023 Jul 11  0:00)
1976-023H = NORAD 08753 = S510923 = SOLRAD-11 debris
1 08753U 76023H   23192.49919926  .00000000  00000-0  00000-0 0 18144
2 08753 019.4540 324.9897 0313333 091.9798 116.8249 00.18691606    07

# Worst residual: 4.28 km
# MJD 60137.000000 (2023 Jul 12  0:00)
1976-023H = NORAD 08753 = S510923 = SOLRAD-11 debris
1 08753U 76023H   23193.49919926  .00000000  00000-0  00000-0 0 18145
2 08753 019.4458 324.9971 0304177 091.6310 184.4651 00.18673940    00

# Worst residual: 10.30 km
# MJD 60138.000000 (2023 Jul 13  0:00)
1976-023H = NORAD 08753 = S510923 = SOLRAD-11 debris
1 08753U 76023H   23194.49919926  .00000000  00000-0  00000-0 0 18146
2 08753 019.4380 324.9957 0310913 091.6183 251.7461 00.18688485    08

# Worst residual: 19.09 km
# MJD 60139.000000 (2023 Jul 14  0:00)
1976-023H = NORAD 08753 = S510923 = SOLRAD-11 debris
1 08753U 76023H   23195.49919926  .00000000  00000-0  00000-0 0 18147
2 08753 019.4300 324.9987 0327423 093.3007 317.5403 00.18703939    00

# Worst residual: 6.50 km
# MJD 60140.000000 (2023 Jul 15  0:00)
1976-023H = NORAD 08753 = S510923 = SOLRAD-11 debris
1 08753U 76023H   23196.49919926  .00000000  00000-0  00000-0 0 18148
2 08753 019.4207 325.0236 0352973 094.0142 024.0907 00.18636776    04

# Worst residual: 18.32 km
# MJD 60141.000000 (2023 Jul 16  0:00)
1976-023H = NORAD 08753 = S510923 = SOLRAD-11 debris
1 08753U 76023H   23197.49919926  .00000000  00000-0  00000-0 0 18149
2 08753 019.4060 325.0410 0340758 092.0696 093.2192 00.18684064    02

# Worst residual: 15.95 km
# MJD 60142.000000 (2023 Jul 17  0:00)
1976-023H = NORAD 08753 = S510923 = SOLRAD-11 debris
1 08753U 76023H   23198.49919926  .00000000  00000-0  00000-0 0 18140
2 08753 019.4002 325.0516 0326873 089.2038 163.5888 00.18701534    00

# Worst residual: 4.49 km
# MJD 60143.000000 (2023 Jul 18  0:00)
1976-023H = NORAD 08753 = S510923 = SOLRAD-11 debris
1 08753U 76023H   23199.49919926  .00000000  00000-0  00000-0 0 18141
2 08753 019.3920 325.0485 0315851 086.9576 233.1735 00.18664039    01

# Worst residual: 10.42 km
# MJD 60144.000000 (2023 Jul 19  0:00)
1976-023H = NORAD 08753 = S510923 = SOLRAD-11 debris
1 08753U 76023H   23200.49919926  .00000000  00000-0  00000-0 0 18144
2 08753 019.3903 325.0456 0319923 088.0474 299.3168 00.18681789    09

# Worst residual: 11.47 km
# MJD 60145.000000 (2023 Jul 20  0:00)
1976-023H = NORAD 08753 = S510923 = SOLRAD-11 debris
1 08753U 76023H   23201.49919926  .00000000  00000-0  00000-0 0 18145
2 08753 019.3831 325.0495 0320933 091.3102 003.4973 00.18705532    01

# Worst residual: 9.73 km
# MJD 60146.000000 (2023 Jul 21  0:00)
1976-023H = NORAD 08753 = S510923 = SOLRAD-11 debris
1 08753U 76023H   23202.49919926  .00000000  00000-0  00000-0 0 18146
2 08753 019.3726 325.0512 0326064 094.8402 067.3395 00.18662015    01

# Worst residual: 10.79 km
# MJD 60147.000000 (2023 Jul 22  0:00)
1976-023H = NORAD 08753 = S510923 = SOLRAD-11 debris
1 08753U 76023H   23203.49919926  .00000000  00000-0  00000-0 0 18147
2 08753 019.3455 325.0367 0327291 094.2573 135.1059 00.18672371    01

# Worst residual: 13.79 km
# MJD 60148.000000 (2023 Jul 23  0:00)
1976-023H = NORAD 08753 = S510923 = SOLRAD-11 debris
1 08753U 76023H   23204.49919926  .00000000  00000-0  00000-0 0 18148
2 08753 019.3339 325.0222 0334435 090.9305 205.8930 00.18701228    03

# Worst residual: 8.15 km
# MJD 60149.000000 (2023 Jul 24  0:00)
1976-023H = NORAD 08753 = S510923 = SOLRAD-11 debris
1 08753U 76023H   23205.49919926  .00000000  00000-0  00000-0 0 18149
2 08753 019.3269 325.0223 0340242 088.4252 275.7890 00.18674763    06

# Worst residual: 9.34 km
# MJD 60150.000000 (2023 Jul 25  0:00)
1976-023H = NORAD 08753 = S510923 = SOLRAD-11 debris
1 08753U 76023H   23206.49919926  .00000000  00000-0  00000-0 0 18140
2 08753 019.3208 325.0333 0349554 089.1698 342.3361 00.18669398    00

# Worst residual: 10.19 km
# MJD 60151.000000 (2023 Jul 26  0:00)
1976-023H = NORAD 08753 = S510923 = SOLRAD-11 debris
1 08753U 76023H   23207.49919926  .00000000  00000-0  00000-0 0 18141
2 08753 019.3119 325.0342 0342226 090.8000 048.0358 00.18684719    06

# Worst residual: 13.79 km
# MJD 60152.000000 (2023 Jul 27  0:00)
1976-023H = NORAD 08753 = S510923 = SOLRAD-11 debris
1 08753U 76023H   23208.49919926  .00000000  00000-0  00000-0 0 18142
2 08753 019.3060 325.0365 0325978 090.3369 115.9372 00.18702562    01
